CCSDS_OMM_VERS = 2.0
CREATION_DATE  = 
ORIGINATOR     = 

OBJECT_NAME    = COSMOS 2058
OBJECT_ID      = 1990-010A
CENTER_NAME    = EARTH
REF_FRAME      = TEME
TIME_SYSTEM    = UTC
MEAN_ELEMENT_THEORY = SGP/SGP4

EPOCH          = 2026-03-28T07:38:03.413184
MEAN_MOTION    = 15.11486989
ECCENTRICITY   = .0007451
INCLINATION    = 82.4687
RA_OF_ASC_NODE = 29.0712
ARG_OF_PERICENTER = 269.9090
MEAN_ANOMALY   = 90.1286

EPHEMERIS_TYPE = 0
CLASSIFICATION_TYPE = U
NORAD_CAT_ID   = 20465
ELEMENT_SET_NO = 999
REV_AT_EPOCH   = 94505
BSTAR          = .31244E-3
MEAN_MOTION_DOT = .5318E-4
MEAN_MOTION_DDOT = 0

CCSDS_OMM_VERS = 2.0
CREATION_DATE  = 
ORIGINATOR     = 

OBJECT_NAME    = SL-14 R/B
OBJECT_ID      = 1990-010B
CENTER_NAME    = EARTH
REF_FRAME      = TEME
TIME_SYSTEM    = UTC
MEAN_ELEMENT_THEORY = SGP/SGP4

EPOCH          = 2026-03-28T12:06:20.871936
MEAN_MOTION    = 14.83585981
ECCENTRICITY   = .0018594
INCLINATION    = 82.4996
RA_OF_ASC_NODE = 249.7102
ARG_OF_PERICENTER = 235.4938
MEAN_ANOMALY   = 124.4522

EPHEMERIS_TYPE = 0
CLASSIFICATION_TYPE = U
NORAD_CAT_ID   = 20466
ELEMENT_SET_NO = 999
REV_AT_EPOCH   = 93127
BSTAR          = .6206E-4
MEAN_MOTION_DOT = .536E-5
MEAN_MOTION_DDOT = 0

CCSDS_OMM_VERS = 2.0
CREATION_DATE  = 
ORIGINATOR     = 

OBJECT_NAME    = SL-14 R/B
OBJECT_ID      = 1990-018B
CENTER_NAME    = EARTH
REF_FRAME      = TEME
TIME_SYSTEM    = UTC
MEAN_ELEMENT_THEORY = SGP/SGP4

EPOCH          = 2026-03-28T09:43:34.991904
MEAN_MOTION    = 14.82163227
ECCENTRICITY   = .0016972
INCLINATION    = 82.5236
RA_OF_ASC_NODE = 205.5997
ARG_OF_PERICENTER = 34.8808
MEAN_ANOMALY   = 325.3515

EPHEMERIS_TYPE = 0
CLASSIFICATION_TYPE = U
NORAD_CAT_ID   = 20511
ELEMENT_SET_NO = 999
REV_AT_EPOCH   = 92535
BSTAR          = .58134E-4
MEAN_MOTION_DOT = .487E-5
MEAN_MOTION_DDOT = 0

CCSDS_OMM_VERS = 2.0
CREATION_DATE  = 
ORIGINATOR     = 

OBJECT_NAME    = HST
OBJECT_ID      = 1990-037B
CENTER_NAME    = EARTH
REF_FRAME      = TEME
TIME_SYSTEM    = UTC
MEAN_ELEMENT_THEORY = SGP/SGP4

EPOCH          = 2026-03-28T05:03:51.440256
MEAN_MOTION    = 15.29763624
ECCENTRICITY   = .0001668
INCLINATION    = 28.4721
RA_OF_ASC_NODE = 273.6275
ARG_OF_PERICENTER = 343.6247
MEAN_ANOMALY   = 16.4295

EPHEMERIS_TYPE = 0
CLASSIFICATION_TYPE = U
NORAD_CAT_ID   = 20580
ELEMENT_SET_NO = 999
REV_AT_EPOCH   = 77615
BSTAR          = .28741E-3
MEAN_MOTION_DOT = .8763E-4
MEAN_MOTION_DDOT = 0

CCSDS_OMM_VERS = 2.0
CREATION_DATE  = 
ORIGINATOR     = 

OBJECT_NAME    = SL-16 R/B
OBJECT_ID      = 1990-046B
CENTER_NAME    = EARTH
REF_FRAME      = TEME
TIME_SYSTEM    = UTC
MEAN_ELEMENT_THEORY = SGP/SGP4

EPOCH          = 2026-03-28T12:01:45.438240
MEAN_MOTION    = 14.15016037
ECCENTRICITY   = .0016334
INCLINATION    = 70.9975
RA_OF_ASC_NODE = 258.4024
ARG_OF_PERICENTER = 274.9850
MEAN_ANOMALY   = 84.9408

EPHEMERIS_TYPE = 0
CLASSIFICATION_TYPE = U
NORAD_CAT_ID   = 20625
ELEMENT_SET_NO = 999
REV_AT_EPOCH   = 85105
BSTAR          = .15293E-3
MEAN_MOTION_DOT = .249E-5
MEAN_MOTION_DDOT = 0

CCSDS_OMM_VERS = 2.0
CREATION_DATE  = 
ORIGINATOR     = 

OBJECT_NAME    = COSMOS 2084
OBJECT_ID      = 1990-055A
CENTER_NAME    = EARTH
REF_FRAME      = TEME
TIME_SYSTEM    = UTC
MEAN_ELEMENT_THEORY = SGP/SGP4

EPOCH          = 2026-03-28T12:23:55.526496
MEAN_MOTION    = 15.05752034
ECCENTRICITY   = .0014109
INCLINATION    = 62.7892
RA_OF_ASC_NODE = 271.3595
ARG_OF_PERICENTER = 195.8635
MEAN_ANOMALY   = 164.2026

EPHEMERIS_TYPE = 0
CLASSIFICATION_TYPE = U
NORAD_CAT_ID   = 20663
ELEMENT_SET_NO = 999
REV_AT_EPOCH   = 93915
BSTAR          = .21814E-3
MEAN_MOTION_DOT = .2978E-4
MEAN_MOTION_DDOT = 0

CCSDS_OMM_VERS = 2.0
CREATION_DATE  = 
ORIGINATOR     = 

OBJECT_NAME    = SL-6 R/B(2)
OBJECT_ID      = 1990-055D
CENTER_NAME    = EARTH
REF_FRAME      = TEME
TIME_SYSTEM    = UTC
MEAN_ELEMENT_THEORY = SGP/SGP4

EPOCH          = 2026-03-28T12:36:06.136992
MEAN_MOTION    = 15.03683600
ECCENTRICITY   = .0027878
INCLINATION    = 62.7832
RA_OF_ASC_NODE = 189.7931
ARG_OF_PERICENTER = 351.2851
MEAN_ANOMALY   = 8.7760

EPHEMERIS_TYPE = 0
CLASSIFICATION_TYPE = U
NORAD_CAT_ID   = 20666
ELEMENT_SET_NO = 999
REV_AT_EPOCH   = 94102
BSTAR          = .16369E-3
MEAN_MOTION_DOT = .2069E-4
MEAN_MOTION_DDOT = 0

CCSDS_OMM_VERS = 2.0
CREATION_DATE  = 
ORIGINATOR     = 

OBJECT_NAME    = SL-8 R/B
OBJECT_ID      = 1990-078B
CENTER_NAME    = EARTH
REF_FRAME      = TEME
TIME_SYSTEM    = UTC
MEAN_ELEMENT_THEORY = SGP/SGP4

EPOCH          = 2026-03-28T10:53:40.925760
MEAN_MOTION    = 14.89622994
ECCENTRICITY   = .0358517
INCLINATION    = 82.9020
RA_OF_ASC_NODE = 234.4248
ARG_OF_PERICENTER = 310.7252
MEAN_ANOMALY   = 46.3331

EPHEMERIS_TYPE = 0
CLASSIFICATION_TYPE = U
NORAD_CAT_ID   = 20775
ELEMENT_SET_NO = 999
REV_AT_EPOCH   = 81209
BSTAR          = .3921E-3
MEAN_MOTION_DOT = .13235E-3
MEAN_MOTION_DDOT = 0

CCSDS_OMM_VERS = 2.0
CREATION_DATE  = 
ORIGINATOR     = 

OBJECT_NAME    = SL-8 R/B
OBJECT_ID      = 1991-006B
CENTER_NAME    = EARTH
REF_FRAME      = TEME
TIME_SYSTEM    = UTC
MEAN_ELEMENT_THEORY = SGP/SGP4

EPOCH          = 2026-03-28T07:03:16.947360
MEAN_MOTION    = 13.77497038
ECCENTRICITY   = .0021879
INCLINATION    = 82.9445
RA_OF_ASC_NODE = 156.2145
ARG_OF_PERICENTER = 346.6815
MEAN_ANOMALY   = 84.4427

EPHEMERIS_TYPE = 0
CLASSIFICATION_TYPE = U
NORAD_CAT_ID   = 21088
ELEMENT_SET_NO = 999
REV_AT_EPOCH   = 76663
BSTAR          = .69651E-4
MEAN_MOTION_DOT = .85E-6
MEAN_MOTION_DDOT = 0

CCSDS_OMM_VERS = 2.0
CREATION_DATE  = 
ORIGINATOR     = 

OBJECT_NAME    = OKEAN-3
OBJECT_ID      = 1991-039A
CENTER_NAME    = EARTH
REF_FRAME      = TEME
TIME_SYSTEM    = UTC
MEAN_ELEMENT_THEORY = SGP/SGP4

EPOCH          = 2026-03-28T08:43:28.536672
MEAN_MOTION    = 15.04911046
ECCENTRICITY   = .0012328
INCLINATION    = 82.5164
RA_OF_ASC_NODE = 318.7506
ARG_OF_PERICENTER = 267.6991
MEAN_ANOMALY   = 92.2824

EPHEMERIS_TYPE = 0
CLASSIFICATION_TYPE = U
NORAD_CAT_ID   = 21397
ELEMENT_SET_NO = 999
REV_AT_EPOCH   = 86784
BSTAR          = .16898E-3
MEAN_MOTION_DOT = .2422E-4
MEAN_MOTION_DDOT = 0

CCSDS_OMM_VERS = 2.0
CREATION_DATE  = 
ORIGINATOR     = 

OBJECT_NAME    = COSMOS 2151
OBJECT_ID      = 1991-042A
CENTER_NAME    = EARTH
REF_FRAME      = TEME
TIME_SYSTEM    = UTC
MEAN_ELEMENT_THEORY = SGP/SGP4

EPOCH          = 2026-03-28T11:50:21.991776
MEAN_MOTION    = 15.00184498
ECCENTRICITY   = .0012425
INCLINATION    = 82.4945
RA_OF_ASC_NODE = 65.5318
ARG_OF_PERICENTER = 4.3726
MEAN_ANOMALY   = 355.7604

EPHEMERIS_TYPE = 0
CLASSIFICATION_TYPE = U
NORAD_CAT_ID   = 21422
ELEMENT_SET_NO = 999
REV_AT_EPOCH   = 86601
BSTAR          = .20613E-3
MEAN_MOTION_DOT = .2605E-4
MEAN_MOTION_DDOT = 0

CCSDS_OMM_VERS = 2.0
CREATION_DATE  = 
ORIGINATOR     = 

OBJECT_NAME    = SL-14 R/B
OBJECT_ID      = 1991-042B
CENTER_NAME    = EARTH
REF_FRAME      = TEME
TIME_SYSTEM    = UTC
MEAN_ELEMENT_THEORY = SGP/SGP4

EPOCH          = 2026-03-28T09:28:27.170688
MEAN_MOTION    = 14.81848236
ECCENTRICITY   = .001718
INCLINATION    = 82.4956
RA_OF_ASC_NODE = 202.6456
ARG_OF_PERICENTER = 174.7930
MEAN_ANOMALY   = 185.3466

EPHEMERIS_TYPE = 0
CLASSIFICATION_TYPE = U
NORAD_CAT_ID   = 21423
ELEMENT_SET_NO = 999
REV_AT_EPOCH   = 85584
BSTAR          = .62385E-4
MEAN_MOTION_DOT = .517E-5
MEAN_MOTION_DDOT = 0

