COSMOS 2058             
1 20465U 90010A   26087.31809506  .00005318  00000+0  31244-3 0  9995
2 20465  82.4687  29.0712 0007451 269.9090  90.1286 15.11486989945058
SL-14 R/B               
1 20466U 90010B   26087.50440824  .00000536  00000+0  62060-4 0  9999
2 20466  82.4996 249.7102 0018594 235.4938 124.4522 14.83585981931278
SL-14 R/B               
1 20511U 90018B   26087.40526611  .00000487  00000+0  58134-4 0  9998
2 20511  82.5236 205.5997 0016972  34.8808 325.3515 14.82163227925354
HST                     
1 20580U 90037B   26087.21101204  .00008763  00000+0  28741-3 0  9996
2 20580  28.4721 273.6275 0001668 343.6247  16.4295 15.29763624776151
SL-16 R/B               
1 20625U 90046B   26087.50122035  .00000249  00000+0  15293-3 0  9992
2 20625  70.9975 258.4024 0016334 274.9850  84.9408 14.15016037851051
COSMOS 2084             
1 20663U 90055A   26087.51661489  .00002978  00000+0  21814-3 0  9993
2 20663  62.7892 271.3595 0014109 195.8635 164.2026 15.05752034939157
SL-6 R/B(2)             
1 20666U 90055D   26087.52507103  .00002069  00000+0  16369-3 0  9999
2 20666  62.7832 189.7931 0027878 351.2851   8.7760 15.03683600941021
SL-8 R/B                
1 20775U 90078B   26087.45394590  .00013235  00000+0  39210-3 0  9998
2 20775  82.9020 234.4248 0358517 310.7252  46.3331 14.89622994812094
SL-8 R/B                
1 21088U 91006B   26087.29394615  .00000085  00000+0  69651-4 0  9990
2 21088  82.9445 156.2145 0021879 346.6815  84.4427 13.77497038766633
OKEAN-3                 
1 21397U 91039A   26087.36352473  .00002422  00000+0  16898-3 0  9994
2 21397  82.5164 318.7506 0012328 267.6991  92.2824 15.04911046867847
COSMOS 2151             
1 21422U 91042A   26087.49331009  .00002605  00000+0  20613-3 0  9996
2 21422  82.4945  65.5318 0012425   4.3726 355.7604 15.00184498866010
SL-14 R/B               
1 21423U 91042B   26087.39475892  .00000517  00000+0  62385-4 0  9998
2 21423  82.4956 202.6456 0017180 174.7930 185.3466 14.81848236855849
